start=new Date('2023-02-08T00:00:00.000Z').valueOf();
sats=[{"APOAPSIS":"548.324","CLASSIFICATION_TYPE":"U","TIME_SYSTEM":"UTC","BSTAR":"0.00059078000000","MEAN_MOTION":"15.06419877","MEAN_MOTION_DOT":"0.00008534","OBJECT_ID":"2021-012BM","OBJECT_NAME":"STARLINK-2095","CENTER_NAME":"EARTH","TLE_LINE2":"2 47679  53.0519  85.7214 0001691  87.5010 272.6172 15.06419877110303","RA_OF_ASC_NODE":"85.7214","SEMIMAJOR_AXIS":"6925.288","SITE":"AFETR","EPHEMERIS_TYPE":"0","LAUNCH_DATE":"2021-02-16","INCLINATION":"53.0519","ELEMENT_SET_NO":"999","COUNTRY_CODE":"US","TLE_LINE1":"1 47679U 21012BM  23038.84993894  .00008534  00000-0  59078-3 0  9991","ARG_OF_PERICENTER":"87.5010","NORAD_CAT_ID":"47679","REV_AT_EPOCH":"11030","MEAN_MOTION_DDOT":"0.0000000000000","OBJECT_TYPE":"PAYLOAD","RCS_SIZE":"LARGE","MEAN_ELEMENT_THEORY":"SGP4","MEAN_ANOMALY":"272.6172","REF_FRAME":"TEME","PERIOD":"95.591","GP_ID":"224742731","EPOCH":"2023-02-07T20:23:54.724416","ECCENTRICITY":"0.00016910","FILE":"3777976","PERIAPSIS":"545.982","DECAY_DATE":null},{"OBJECT_ID":"2021-017A","MEAN_MOTION_DOT":"0.00001071","BSTAR":"0.00009074600000","MEAN_MOTION":"15.06399206","CLASSIFICATION_TYPE":"U","TIME_SYSTEM":"UTC","APOAPSIS":"548.039","TLE_LINE2":"2 47722  53.0525 211.6506 0001188  99.9809 260.1314 15.06399206108273","CENTER_NAME":"EARTH","OBJECT_NAME":"STARLINK-2068","SITE":"AFETR","EPHEMERIS_TYPE":"0","SEMIMAJOR_AXIS":"6925.351","RA_OF_ASC_NODE":"211.6506","INCLINATION":"53.0525","LAUNCH_DATE":"2021-03-04","NORAD_CAT_ID":"47722","ARG_OF_PERICENTER":"99.9809","TLE_LINE1":"1 47722U 21017A   23038.69383654  .00001071  00000-0  90746-4 0  9992","COUNTRY_CODE":"US","ELEMENT_SET_NO":"999","MEAN_ELEMENT_THEORY":"SGP4","MEAN_ANOMALY":"260.1314","RCS_SIZE":"LARGE","OBJECT_TYPE":"PAYLOAD","MEAN_MOTION_DDOT":"0.0000000000000","REV_AT_EPOCH":"10827","ECCENTRICITY":"0.00011880","EPOCH":"2023-02-07T16:39:07.477056","GP_ID":"224741494","PERIOD":"95.592","REF_FRAME":"TEME","DECAY_DATE":null,"PERIAPSIS":"546.393","FILE":"3777976"},{"PERIAPSIS":"546.360","FILE":"3777976","DECAY_DATE":null,"REF_FRAME":"TEME","GP_ID":"224741744","PERIOD":"95.591","EPOCH":"2023-02-07T15:14:48.118560","ECCENTRICITY":"0.00011750","MEAN_MOTION_DDOT":"0.0000000000000","REV_AT_EPOCH":"10914","OBJECT_TYPE":"PAYLOAD","MEAN_ANOMALY":"253.0354","MEAN_ELEMENT_THEORY":"SGP4","RCS_SIZE":"LARGE","COUNTRY_CODE":"US","ELEMENT_SET_NO":"999","ARG_OF_PERICENTER":"107.0764","TLE_LINE1":"1 47723U 21017B   23038.63527915  .00003041  00000-0  22290-3 0  9994","NORAD_CAT_ID":"47723","LAUNCH_DATE":"2021-03-04","INCLINATION":"53.0526","SEMIMAJOR_AXIS":"6925.309","RA_OF_ASC_NODE":"146.6738","EPHEMERIS_TYPE":"0","SITE":"AFETR","CENTER_NAME":"EARTH","OBJECT_NAME":"STARLINK-2107","TLE_LINE2":"2 47723  53.0526 146.6738 0001175 107.0764 253.0354 15.06412932109140","TIME_SYSTEM":"UTC","CLASSIFICATION_TYPE":"U","APOAPSIS":"547.988","BSTAR":"0.00022290000000","MEAN_MOTION":"15.06412932","MEAN_MOTION_DOT":"0.00003041","OBJECT_ID":"2021-017B"},{"RCS_SIZE":"LARGE","MEAN_ELEMENT_THEORY":"SGP4","MEAN_ANOMALY":"262.3694","OBJECT_TYPE":"PAYLOAD","REV_AT_EPOCH":"10913","MEAN_MOTION_DDOT":"0.0000000000000","NORAD_CAT_ID":"47724","TLE_LINE1":"1 47724U 21017C   23038.80482760  .00002655  00000-0  19697-3 0  9999","ARG_OF_PERICENTER":"97.7393","ELEMENT_SET_NO":"999","COUNTRY_CODE":"US","DECAY_DATE":null,"FILE":"3777976","PERIAPSIS":"546.559","EPOCH":"2023-02-07T19:18:57.104640","ECCENTRICITY":"0.00008700","GP_ID":"224742995","PERIOD":"95.591","REF_FRAME":"TEME","TLE_LINE2":"2 47724  53.0549 145.9158 0000870  97.7393 262.3694 15.06417096109133","OBJECT_NAME":"STARLINK-2116","CENTER_NAME":"EARTH","OBJECT_ID":"2021-017C","MEAN_MOTION_DOT":"0.00002655","BSTAR":"0.00019697000000","MEAN_MOTION":"15.06417096","APOAPSIS":"547.764","CLASSIFICATION_TYPE":"U","TIME_SYSTEM":"UTC","INCLINATION":"53.0549","LAUNCH_DATE":"2021-03-04","EPHEMERIS_TYPE":"0","SITE":"AFETR","RA_OF_ASC_NODE":"145.9158","SEMIMAJOR_AXIS":"6925.296"},{"TLE_LINE2":"2 47725  53.0527 216.0568 0001201  81.9339 278.1787 15.06398800108160","CENTER_NAME":"EARTH","OBJECT_NAME":"STARLINK-2125","MEAN_MOTION_DOT":"0.00001718","OBJECT_ID":"2021-017D","CLASSIFICATION_TYPE":"U","TIME_SYSTEM":"UTC","APOAPSIS":"548.049","MEAN_MOTION":"15.06398800","BSTAR":"0.00013421000000","INCLINATION":"53.0527","LAUNCH_DATE":"2021-03-04","SITE":"AFETR","EPHEMERIS_TYPE":"0","SEMIMAJOR_AXIS":"6925.352","RA_OF_ASC_NODE":"216.0568","OBJECT_TYPE":"PAYLOAD","MEAN_ELEMENT_THEORY":"SGP4","MEAN_ANOMALY":"278.1787","RCS_SIZE":"LARGE","MEAN_MOTION_DDOT":"0.0000000000000","REV_AT_EPOCH":"10816","NORAD_CAT_ID":"47725","COUNTRY_CODE":"US","ELEMENT_SET_NO":"999","ARG_OF_PERICENTER":"81.9339","TLE_LINE1":"1 47725U 21017D   23038.77259573  .00001718  00000-0  13421-3 0  9998","DECAY_DATE":null,"PERIAPSIS":"546.386","FILE":"3777976","ECCENTRICITY":"0.00012010","EPOCH":"2023-02-07T18:32:32.271072","REF_FRAME":"TEME","GP_ID":"224743235","PERIOD":"95.592"},{"INCLINATION":"53.0521","LAUNCH_DATE":"2021-03-04","EPHEMERIS_TYPE":"0","SITE":"AFETR","RA_OF_ASC_NODE":"216.4270","SEMIMAJOR_AXIS":"6925.340","TLE_LINE2":"2 47726  53.0521 216.4270 0001238  90.0262 270.0869 15.06402905108147","OBJECT_NAME":"STARLINK-2126","CENTER_NAME":"EARTH","OBJECT_ID":"2021-017E","MEAN_MOTION_DOT":"0.00001963","BSTAR":"0.00015064000000","MEAN_MOTION":"15.06402905","APOAPSIS":"548.062","TIME_SYSTEM":"UTC","CLASSIFICATION_TYPE":"U","DECAY_DATE":null,"FILE":"3777976","PERIAPSIS":"546.347","EPOCH":"2023-02-07T16:35:46.736160","ECCENTRICITY":"0.00012380","PERIOD":"95.592","GP_ID":"224741995","REF_FRAME":"TEME","RCS_SIZE":"LARGE","MEAN_ELEMENT_THEORY":"SGP4","MEAN_ANOMALY":"270.0869","OBJECT_TYPE":"PAYLOAD","REV_AT_EPOCH":"10814","MEAN_MOTION_DDOT":"0.0000000000000","NORAD_CAT_ID":"47726","TLE_LINE1":"1 47726U 21017E   23038.69151315  .00001963  00000-0  15064-3 0  9992","ARG_OF_PERICENTER":"90.0262","ELEMENT_SET_NO":"999","COUNTRY_CODE":"US"},{"SITE":"AFETR","EPHEMERIS_TYPE":"0","RA_OF_ASC_NODE":"136.9455","SEMIMAJOR_AXIS":"6925.322","INCLINATION":"53.0534","LAUNCH_DATE":"2021-03-04","MEAN_MOTION_DOT":"0.00002322","OBJECT_ID":"2021-017F","APOAPSIS":"547.797","TIME_SYSTEM":"UTC","CLASSIFICATION_TYPE":"U","BSTAR":"0.00017468000000","MEAN_MOTION":"15.06408514","TLE_LINE2":"2 47727  53.0534 136.9455 0000880  82.5677 277.5412 15.06408514108622","OBJECT_NAME":"STARLINK-2129","CENTER_NAME":"EARTH","EPOCH":"2023-02-07T13:49:51.289248","ECCENTRICITY":"0.00008800","REF_FRAME":"TEME","GP_ID":"224712817","PERIOD":"95.592","DECAY_DATE":null,"FILE":"3777526","PERIAPSIS":"546.578","NORAD_CAT_ID":"47727","ELEMENT_SET_NO":"999","COUNTRY_CODE":"US","TLE_LINE1":"1 47727U 21017F   23038.57628807  .00002322  00000-0  17468-3 0  9995","ARG_OF_PERICENTER":"82.5677","OBJECT_TYPE":"PAYLOAD","RCS_SIZE":"LARGE","MEAN_ANOMALY":"277.5412","MEAN_ELEMENT_THEORY":"SGP4","REV_AT_EPOCH":"10862","MEAN_MOTION_DDOT":"0.0000000000000"},{"MEAN_MOTION_DOT":"0.00000907","OBJECT_ID":"2021-017G","APOAPSIS":"548.025","CLASSIFICATION_TYPE":"U","TIME_SYSTEM":"UTC","BSTAR":"0.00007979100000","MEAN_MOTION":"15.06395041","TLE_LINE2":"2 47728  53.0539 215.9386 0001150  92.3517 267.7603 15.06395041108221","OBJECT_NAME":"STARLINK-2131","CENTER_NAME":"EARTH","EPHEMERIS_TYPE":"0","SITE":"AFETR","RA_OF_ASC_NODE":"215.9386","SEMIMAJOR_AXIS":"6925.364","INCLINATION":"53.0539","LAUNCH_DATE":"2021-03-04","NORAD_CAT_ID":"47728","ELEMENT_SET_NO":"999","COUNTRY_CODE":"US","TLE_LINE1":"1 47728U 21017G   23038.79840205  .00000907  00000-0  79791-4 0  9993","ARG_OF_PERICENTER":"92.3517","OBJECT_TYPE":"PAYLOAD","RCS_SIZE":"LARGE","MEAN_ANOMALY":"267.7603","MEAN_ELEMENT_THEORY":"SGP4","REV_AT_EPOCH":"10822","MEAN_MOTION_DDOT":"0.0000000000000","EPOCH":"2023-02-07T19:09:41.937120","ECCENTRICITY":"0.00011500","REF_FRAME":"TEME","GP_ID":"224742495","PERIOD":"95.592","DECAY_DATE":null,"FILE":"3777976","PERIAPSIS":"546.432"},{"OBJECT_NAME":"STARLINK-2132","CENTER_NAME":"EARTH","TLE_LINE2":"2 47729  53.0531 161.3196 0001259  94.1380 265.9753 15.06419334108920","APOAPSIS":"548.026","CLASSIFICATION_TYPE":"U","TIME_SYSTEM":"UTC","BSTAR":"0.00028930000000","MEAN_MOTION":"15.06419334","MEAN_MOTION_DOT":"0.00004032","OBJECT_ID":"2021-017H","LAUNCH_DATE":"2021-03-04","INCLINATION":"53.0531","RA_OF_ASC_NODE":"161.3196","SEMIMAJOR_AXIS":"6925.289","SITE":"AFETR","EPHEMERIS_TYPE":"0","REV_AT_EPOCH":"10892","MEAN_MOTION_DDOT":"0.0000000000000","OBJECT_TYPE":"PAYLOAD","RCS_SIZE":"LARGE","MEAN_ELEMENT_THEORY":"SGP4","MEAN_ANOMALY":"265.9753","ELEMENT_SET_NO":"999","COUNTRY_CODE":"US","TLE_LINE1":"1 47729U 21017H   23038.76108325  .00004032  00000-0  28930-3 0  9992","ARG_OF_PERICENTER":"94.1380","NORAD_CAT_ID":"47729","FILE":"3777976","PERIAPSIS":"546.282","DECAY_DATE":null,"REF_FRAME":"TEME","GP_ID":"224742735","PERIOD":"95.591","EPOCH":"2023-02-07T18:15:57.592800","ECCENTRICITY":"0.00012590"},{"ECCENTRICITY":"0.00012130","EPOCH":"2023-02-07T16:31:07.273632","REF_FRAME":"TEME","GP_ID":"224741495","PERIOD":"95.592","DECAY_DATE":null,"FILE":"3777976","PERIAPSIS":"546.351","NORAD_CAT_ID":"47730","ELEMENT_SET_NO":"999","COUNTRY_CODE":"US","TLE_LINE1":"1 47730U 21017J   23038.68827863 -.00004884  00000-0 -30912-3 0  9990","ARG_OF_PERICENTER":"90.8575","OBJECT_TYPE":"PAYLOAD","RCS_SIZE":"LARGE","MEAN_ANOMALY":"269.2553","MEAN_ELEMENT_THEORY":"SGP4","REV_AT_EPOCH":"10794","MEAN_MOTION_DDOT":"0.0000000000000","EPHEMERIS_TYPE":"0","SITE":"AFETR","RA_OF_ASC_NODE":"231.4448","SEMIMAJOR_AXIS":"6925.326","INCLINATION":"53.0520","LAUNCH_DATE":"2021-03-04","MEAN_MOTION_DOT":"-0.00004884","OBJECT_ID":"2021-017J","APOAPSIS":"548.031","TIME_SYSTEM":"UTC","CLASSIFICATION_TYPE":"U","BSTAR":"-0.00030912000000","MEAN_MOTION":"15.06407258","TLE_LINE2":"2 47730  53.0520 231.4448 0001213  90.8575 269.2553 15.06407258107946","OBJECT_NAME":"STARLINK-2140","CENTER_NAME":"EARTH"}];
